{
  "norad_id": 53992,
  "name": "STARLINK-5108",
  "history": [
    {
      "epoch": "2026-03-28T20:09:46.996128Z",
      "apogee_km": 540.6556685317619,
      "perigee_km": 538.8278266090792,
      "latitude_deg": 4.709425358456947e-05,
      "longitude_deg": -0.5515853101946626,
      "height_km": 540.6060030391761,
      "semi_major_axis_km": 6917.87874757042,
      "eccentricity": 0.00013211,
      "inclination_deg": 53.217,
      "raan_deg": 128.149,
      "arg_perigee_deg": 88.0275,
      "mean_anomaly_deg": 272.0869,
      "mean_motion_rev_day": 15.08840537
    },
    {
      "epoch": "2026-03-30T02:22:06.500640Z",
      "apogee_km": 540.6520616114112,
      "perigee_km": 538.8395763128428,
      "latitude_deg": -1.1236861129035543e-06,
      "longitude_deg": -100.52368183694423,
      "height_km": 540.5943382303169,
      "semi_major_axis_km": 6917.882818962126,
      "eccentricity": 0.000131,
      "inclination_deg": 53.2161,
      "raan_deg": 122.4987,
      "arg_perigee_deg": 87.0195,
      "mean_anomaly_deg": 273.0947,
      "mean_motion_rev_day": 15.08839205
    },
    {
      "epoch": "2026-03-30T05:32:52.756224Z",
      "apogee_km": 540.6523909747248,
      "perigee_km": 538.8364471022278,
      "latitude_deg": -2.3943218323470645e-05,
      "longitude_deg": -148.9417083106614,
      "height_km": 540.5924830144771,
      "semi_major_axis_km": 6917.881419038476,
      "eccentricity": 0.00013125,
      "inclination_deg": 53.2161,
      "raan_deg": 121.904,
      "arg_perigee_deg": 86.9964,
      "mean_anomaly_deg": 273.1178,
      "mean_motion_rev_day": 15.08839663
    },
    {
      "epoch": "2026-03-30T08:43:38.980704Z",
      "apogee_km": 540.651977939684,
      "perigee_km": 538.8318839929461,
      "latitude_deg": -6.342817232676559e-05,
      "longitude_deg": 162.64018277891114,
      "height_km": 540.610427319906,
      "semi_major_axis_km": 6917.878930966314,
      "eccentricity": 0.00013155,
      "inclination_deg": 53.2162,
      "raan_deg": 121.3091,
      "arg_perigee_deg": 88.2901,
      "mean_anomaly_deg": 271.8241,
      "mean_motion_rev_day": 15.08840477
    },
    {
      "epoch": "2026-03-31T18:06:45.132192Z",
      "apogee_km": 540.6773031641978,
      "perigee_km": 538.8136256282896,
      "latitude_deg": 4.898495343055053e-05,
      "longitude_deg": 14.24916199906517,
      "height_km": 540.6114215439477,
      "semi_major_axis_km": 6917.882464396243,
      "eccentricity": 0.0001347,
      "inclination_deg": 53.2168,
      "raan_deg": 115.0647,
      "arg_perigee_deg": 88.1737,
      "mean_anomaly_deg": 271.941,
      "mean_motion_rev_day": 15.08839321
    },
    {
      "epoch": "2026-04-01T17:57:32.194656Z",
      "apogee_km": 540.6396275313191,
      "perigee_km": 538.8617303978253,
      "latitude_deg": 3.7620911120179693e-06,
      "longitude_deg": 11.112998936116496,
      "height_km": 540.5804808090506,
      "semi_major_axis_km": 6917.887678964572,
      "eccentricity": 0.0001285,
      "inclination_deg": 53.2171,
      "raan_deg": 110.604,
      "arg_perigee_deg": 85.7434,
      "mean_anomaly_deg": 274.3705,
      "mean_motion_rev_day": 15.08837615
    },
    {
      "epoch": "2026-04-02T17:48:19.142208Z",
      "apogee_km": 540.6363217909748,
      "perigee_km": 538.8508168160388,
      "latitude_deg": 1.2312222635738673e-05,
      "longitude_deg": 7.978155527658444,
      "height_km": 540.5992521337016,
      "semi_major_axis_km": 6917.8805693035065,
      "eccentricity": 0.00012905,
      "inclination_deg": 53.217,
      "raan_deg": 106.1441,
      "arg_perigee_deg": 87.427,
      "mean_anomaly_deg": 272.687,
      "mean_motion_rev_day": 15.08839941
    },
    {
      "epoch": "2026-04-03T06:31:23.907936Z",
      "apogee_km": 540.6109487836338,
      "perigee_km": 538.8441261807611,
      "latitude_deg": -2.8871643015719997e-05,
      "longitude_deg": 174.30675855620782,
      "height_km": 540.5918217546027,
      "semi_major_axis_km": 6917.864537482197,
      "eccentricity": 0.0001277,
      "inclination_deg": 53.2168,
      "raan_deg": 103.7649,
      "arg_perigee_deg": 87.9578,
      "mean_anomaly_deg": 272.156,
      "mean_motion_rev_day": 15.08845186
    },
    {
      "epoch": "2026-04-04T09:32:56.932224Z",
      "apogee_km": 540.5814598484058,
      "perigee_km": 538.8604351482263,
      "latitude_deg": 2.8364401292615882e-05,
      "longitude_deg": 122.75388766783473,
      "height_km": 540.6290553526597,
      "semi_major_axis_km": 6917.857947498315,
      "eccentricity": 0.00012439,
      "inclination_deg": 53.2162,
      "raan_deg": 98.7095,
      "arg_perigee_deg": 90.8237,
      "mean_anomaly_deg": 269.2898,
      "mean_motion_rev_day": 15.08847342
    },
    {
      "epoch": "2026-04-05T04:37:35.619168Z",
      "apogee_km": 540.5131383699581,
      "perigee_km": 539.0566390955046,
      "latitude_deg": 4.385131233354157e-05,
      "longitude_deg": -167.76307885049494,
      "height_km": 540.6299739308159,
      "semi_major_axis_km": 6917.9218887327315,
      "eccentricity": 0.00010527,
      "inclination_deg": 53.2182,
      "raan_deg": 95.1372,
      "arg_perigee_deg": 85.9749,
      "mean_anomaly_deg": 274.1364,
      "mean_motion_rev_day": 15.08826423
    },
    {
      "epoch": "2026-04-05T17:20:40.778880Z",
      "apogee_km": 540.6933126026597,
      "perigee_km": 538.8393145146256,
      "latitude_deg": -1.515510868604862e-05,
      "longitude_deg": -1.4352362753153822,
      "height_km": 541.000304430527,
      "semi_major_axis_km": 6917.903313558642,
      "eccentricity": 0.000134,
      "inclination_deg": 53.2174,
      "raan_deg": 92.7589,
      "arg_perigee_deg": 111.3931,
      "mean_anomaly_deg": 248.7204,
      "mean_motion_rev_day": 15.088325
    },
    {
      "epoch": "2026-04-06T06:03:45.675936Z",
      "apogee_km": 540.6277289942091,
      "perigee_km": 538.8714159511901,
      "latitude_deg": 4.3516909479387805e-05,
      "longitude_deg": 164.8938910179679,
      "height_km": 540.8278176776008,
      "semi_major_axis_km": 6917.886572472699,
      "eccentricity": 0.00012694,
      "inclination_deg": 53.2169,
      "raan_deg": 90.3807,
      "arg_perigee_deg": 101.9907,
      "mean_anomaly_deg": 258.1228,
      "mean_motion_rev_day": 15.08837977
    },
    {
      "epoch": "2026-04-07T05:54:32.832576Z",
      "apogee_km": 540.608683830972,
      "perigee_km": 538.9009330591398,
      "latitude_deg": -2.2282510944461943e-05,
      "longitude_deg": 161.7602153380108,
      "height_km": 540.5369864088549,
      "semi_major_axis_km": 6917.891808445056,
      "eccentricity": 0.00012343,
      "inclination_deg": 53.217,
      "raan_deg": 85.9229,
      "arg_perigee_deg": 82.3494,
      "mean_anomaly_deg": 277.7638,
      "mean_motion_rev_day": 15.08836264
    },
    {
      "epoch": "2026-04-08T05:45:20.185344Z",
      "apogee_km": 540.6511209650662,
      "perigee_km": 538.8596635511667,
      "latitude_deg": 4.866332626231753e-05,
      "longitude_deg": 158.623021520582,
      "height_km": 540.5434220661732,
      "semi_major_axis_km": 6917.892392258116,
      "eccentricity": 0.00012948,
      "inclination_deg": 53.2173,
      "raan_deg": 81.4623,
      "arg_perigee_deg": 83.0902,
      "mean_anomaly_deg": 277.0238,
      "mean_motion_rev_day": 15.08836073
    },
    {
      "epoch": "2026-04-09T21:29:57.627168Z",
      "apogee_km": 540.5047657661626,
      "perigee_km": 538.9731480293058,
      "latitude_deg": -6.593666040432491e-05,
      "longitude_deg": -86.60069339135003,
      "height_km": 540.674804201098,
      "semi_major_axis_km": 6917.875956897734,
      "eccentricity": 0.0001107,
      "inclination_deg": 53.217,
      "raan_deg": 74.0269,
      "arg_perigee_deg": 92.981,
      "mean_anomaly_deg": 267.1308,
      "mean_motion_rev_day": 15.0884145
    },
    {
      "epoch": "2026-04-10T07:02:16.803456Z",
      "apogee_km": 540.609115058186,
      "perigee_km": 538.8741111020263,
      "latitude_deg": 1.2260868919130729e-05,
      "longitude_deg": 128.14372369838077,
      "height_km": 540.4950243042698,
      "semi_major_axis_km": 6917.878613080106,
      "eccentricity": 0.0001254,
      "inclination_deg": 53.218,
      "raan_deg": 72.2429,
      "arg_perigee_deg": 80.5435,
      "mean_anomaly_deg": 279.5699,
      "mean_motion_rev_day": 15.08840581
    },
    {
      "epoch": "2026-04-11T21:11:32.820864Z",
      "apogee_km": 540.5977409151446,
      "perigee_km": 538.847522428332,
      "latitude_deg": 6.513431416691437e-06,
      "longitude_deg": -92.87527038793348,
      "height_km": 540.5765331327066,
      "semi_major_axis_km": 6917.8596316717385,
      "eccentricity": 0.0001265,
      "inclination_deg": 53.2177,
      "raan_deg": 65.1076,
      "arg_perigee_deg": 87.2509,
      "mean_anomaly_deg": 272.8628,
      "mean_motion_rev_day": 15.08846791
    },
    {
      "epoch": "2026-04-13T06:34:40.002240Z",
      "apogee_km": 540.7464794595944,
      "perigee_km": 538.8277240307343,
      "latitude_deg": 8.984294610749928e-06,
      "longitude_deg": 118.72892181052434,
      "height_km": 540.641755567398,
      "semi_major_axis_km": 6917.924101745164,
      "eccentricity": 0.00013868,
      "inclination_deg": 53.2177,
      "raan_deg": 58.8628,
      "arg_perigee_deg": 87.5481,
      "mean_anomaly_deg": 272.567,
      "mean_motion_rev_day": 15.08825699
    },
    {
      "epoch": "2026-04-14T09:36:08.852544Z",
      "apogee_km": 540.4632974733331,
      "perigee_km": 538.766096272022,
      "latitude_deg": 1.4363324685135924e-05,
      "longitude_deg": 67.193153044555,
      "height_km": 540.4156545779321,
      "semi_major_axis_km": 6917.751696872677,
      "eccentricity": 0.00012267,
      "inclination_deg": 53.2183,
      "raan_deg": 53.8071,
      "arg_perigee_deg": 83.5686,
      "mean_anomaly_deg": 276.5446,
      "mean_motion_rev_day": 15.08882104
    }
  ]
}